start=new Date('2021-10-18T00:00:00.000Z').valueOf();
sats=[{"INCLINATION":"53.0547","CLASSIFICATION_TYPE":"U","LAUNCH_DATE":"2021-05-15","COUNTRY_CODE":"US","OBJECT_NAME":"STARLINK-2240","MEAN_MOTION":"15.06398197","GP_ID":"187446357","NORAD_CAT_ID":"48585","PERIAPSIS":"546.198","MEAN_ELEMENT_THEORY":"SGP4","OBJECT_ID":"2021-041AJ","APOAPSIS":"548.240","EPOCH":"2021-10-17T01:57:20.572704","ECCENTRICITY":"0.00014740","DECAY_DATE":null,"FILE":"3168566","ARG_OF_PERICENTER":"82.1645","MEAN_ANOMALY":"277.9511","EPHEMERIS_TYPE":"0","MEAN_MOTION_DOT":"0.00001257","OBJECT_TYPE":"PAYLOAD","RA_OF_ASC_NODE":"144.9810","REV_AT_EPOCH":"2320","MEAN_MOTION_DDOT":"0.0000000000000","RCS_SIZE":"LARGE","ELEMENT_SET_NO":"999","SITE":"AFETR","PERIOD":"95.592","CENTER_NAME":"EARTH","TLE_LINE2":"2 48585  53.0547 144.9810 0001474  82.1645 277.9511 15.06398197 23203","BSTAR":"0.00010330000000","TLE_LINE1":"1 48585U 21041AJ  21290.08148811  .00001257  00000-0  10330-3 0  9998","REF_FRAME":"TEME","TIME_SYSTEM":"UTC","SEMIMAJOR_AXIS":"6925.354"},{"OBJECT_NAME":"STARLINK-2241","COUNTRY_CODE":"US","LAUNCH_DATE":"2021-05-15","CLASSIFICATION_TYPE":"U","INCLINATION":"53.0544","MEAN_MOTION_DOT":"0.00001299","MEAN_ANOMALY":"289.3465","EPHEMERIS_TYPE":"0","ARG_OF_PERICENTER":"70.7712","FILE":"3168566","DECAY_DATE":null,"EPOCH":"2021-10-17T00:11:14.042688","ECCENTRICITY":"0.00017450","APOAPSIS":"548.472","OBJECT_ID":"2021-041AK","GP_ID":"187446583","PERIAPSIS":"546.055","NORAD_CAT_ID":"48586","MEAN_ELEMENT_THEORY":"SGP4","MEAN_MOTION":"15.06383772","ELEMENT_SET_NO":"999","RCS_SIZE":"LARGE","MEAN_MOTION_DDOT":"0.0000000000000","REV_AT_EPOCH":"2319","RA_OF_ASC_NODE":"145.3115","OBJECT_TYPE":"PAYLOAD","SEMIMAJOR_AXIS":"6925.398","TIME_SYSTEM":"UTC","REF_FRAME":"TEME","TLE_LINE1":"1 48586U 21041AK  21290.00780142  .00001299  00000-0  10612-3 0  9999","BSTAR":"0.00010612000000","TLE_LINE2":"2 48586  53.0544 145.3115 0001745  70.7712 289.3465 15.06383772 23199","CENTER_NAME":"EARTH","PERIOD":"95.593","SITE":"AFETR"},{"CLASSIFICATION_TYPE":"U","INCLINATION":"53.0536","COUNTRY_CODE":"US","OBJECT_NAME":"STARLINK-2242","LAUNCH_DATE":"2021-05-15","GP_ID":"187446245","PERIAPSIS":"545.961","NORAD_CAT_ID":"48587","MEAN_ELEMENT_THEORY":"SGP4","MEAN_MOTION":"15.06382293","MEAN_ANOMALY":"283.6813","EPHEMERIS_TYPE":"0","MEAN_MOTION_DOT":"0.00001468","DECAY_DATE":null,"FILE":"3168566","ARG_OF_PERICENTER":"76.4386","APOAPSIS":"548.575","EPOCH":"2021-10-17T01:56:01.851936","ECCENTRICITY":"0.00018870","OBJECT_ID":"2021-041AL","MEAN_MOTION_DDOT":"0.0000000000000","REV_AT_EPOCH":"2320","RA_OF_ASC_NODE":"144.9754","OBJECT_TYPE":"PAYLOAD","ELEMENT_SET_NO":"999","RCS_SIZE":"LARGE","REF_FRAME":"TEME","TIME_SYSTEM":"UTC","BSTAR":"0.00011750000000","TLE_LINE1":"1 48587U 21041AL  21290.08057699  .00001468  00000-0  11750-3 0  9994","CENTER_NAME":"EARTH","PERIOD":"95.593","TLE_LINE2":"2 48587  53.0536 144.9754 0001887  76.4386 283.6813 15.06382293 23205","SITE":"AFETR","SEMIMAJOR_AXIS":"6925.403"},{"RCS_SIZE":"LARGE","ELEMENT_SET_NO":"999","REV_AT_EPOCH":"2332","MEAN_MOTION_DDOT":"0.0000000000000","OBJECT_TYPE":"PAYLOAD","RA_OF_ASC_NODE":"135.7028","SEMIMAJOR_AXIS":"6925.365","TLE_LINE1":"1 48588U 21041AM  21289.92392548  .00001129  00000-0  94717-4 0  9990","BSTAR":"0.00009471700000","TIME_SYSTEM":"UTC","REF_FRAME":"TEME","SITE":"AFETR","TLE_LINE2":"2 48588  53.0552 135.7028 0001873  72.0932 288.0261 15.06394674 23325","PERIOD":"95.592","CENTER_NAME":"EARTH","OBJECT_NAME":"STARLINK-2244","COUNTRY_CODE":"US","LAUNCH_DATE":"2021-05-15","INCLINATION":"53.0552","CLASSIFICATION_TYPE":"U","ARG_OF_PERICENTER":"72.0932","FILE":"3168566","DECAY_DATE":null,"MEAN_MOTION_DOT":"0.00001129","EPHEMERIS_TYPE":"0","MEAN_ANOMALY":"288.0261","OBJECT_ID":"2021-041AM","EPOCH":"2021-10-16T22:10:27.161472","ECCENTRICITY":"0.00018730","APOAPSIS":"548.527","NORAD_CAT_ID":"48588","GP_ID":"187446132","PERIAPSIS":"545.933","MEAN_ELEMENT_THEORY":"SGP4","MEAN_MOTION":"15.06394674"},{"MEAN_MOTION_DOT":"0.00001072","EPHEMERIS_TYPE":"0","MEAN_ANOMALY":"300.0784","FILE":"3168566","ARG_OF_PERICENTER":"60.0417","DECAY_DATE":null,"ECCENTRICITY":"0.00021380","EPOCH":"2021-10-17T01:16:15.004416","APOAPSIS":"548.741","OBJECT_ID":"2021-041AN","GP_ID":"187446020","NORAD_CAT_ID":"48589","PERIAPSIS":"545.780","MEAN_ELEMENT_THEORY":"SGP4","MEAN_MOTION":"15.06384624","OBJECT_NAME":"STARLINK-2245","COUNTRY_CODE":"US","LAUNCH_DATE":"2021-05-15","CLASSIFICATION_TYPE":"U","INCLINATION":"53.0539","SEMIMAJOR_AXIS":"6925.396","TIME_SYSTEM":"UTC","REF_FRAME":"TEME","TLE_LINE1":"1 48589U 21041AN  21290.05295144  .00001072  00000-0  90926-4 0  9996","BSTAR":"0.00009092600000","TLE_LINE2":"2 48589  53.0539 135.1159 0002138  60.0417 300.0784 15.06384624 23341","PERIOD":"95.593","CENTER_NAME":"EARTH","SITE":"AFETR","ELEMENT_SET_NO":"999","RCS_SIZE":"LARGE","MEAN_MOTION_DDOT":"0.0000000000000","REV_AT_EPOCH":"2334","OBJECT_TYPE":"PAYLOAD","RA_OF_ASC_NODE":"135.1159"},{"TLE_LINE2":"2 48590  53.0546 144.9948 0001890  72.6418 287.4778 15.06396296 23203","PERIOD":"95.592","CENTER_NAME":"EARTH","SITE":"AFETR","TIME_SYSTEM":"UTC","REF_FRAME":"TEME","TLE_LINE1":"1 48590U 21041AP  21290.07781559  .00002402  00000-0  18013-3 0  9994","BSTAR":"0.00018013000000","SEMIMAJOR_AXIS":"6925.360","OBJECT_TYPE":"PAYLOAD","RA_OF_ASC_NODE":"144.9948","MEAN_MOTION_DDOT":"0.0000000000000","REV_AT_EPOCH":"2320","ELEMENT_SET_NO":"999","RCS_SIZE":"LARGE","MEAN_MOTION":"15.06396296","PERIAPSIS":"545.916","GP_ID":"187446693","NORAD_CAT_ID":"48590","MEAN_ELEMENT_THEORY":"SGP4","ECCENTRICITY":"0.00018900","EPOCH":"2021-10-17T01:52:03.266976","APOAPSIS":"548.534","OBJECT_ID":"2021-041AP","MEAN_MOTION_DOT":"0.00002402","MEAN_ANOMALY":"287.4778","EPHEMERIS_TYPE":"0","ARG_OF_PERICENTER":"72.6418","FILE":"3168566","DECAY_DATE":null,"CLASSIFICATION_TYPE":"U","INCLINATION":"53.0546","LAUNCH_DATE":"2021-05-15","OBJECT_NAME":"STARLINK-2246","COUNTRY_CODE":"US"},{"REV_AT_EPOCH":"2424","MEAN_MOTION_DDOT":"0.0000000000000","OBJECT_TYPE":"PAYLOAD","RA_OF_ASC_NODE":"135.1494","RCS_SIZE":"LARGE","ELEMENT_SET_NO":"999","TLE_LINE1":"1 48591U 21041AQ  21290.04558018  .00000995  00000-0  85744-4 0  9995","BSTAR":"0.00008574400000","TIME_SYSTEM":"UTC","REF_FRAME":"TEME","SITE":"AFETR","TLE_LINE2":"2 48591  53.0546 135.1494 0002164  67.7848 292.3371 15.06386865 24249","CENTER_NAME":"EARTH","PERIOD":"95.593","SEMIMAJOR_AXIS":"6925.389","INCLINATION":"53.0546","CLASSIFICATION_TYPE":"U","OBJECT_NAME":"STARLINK-2248","COUNTRY_CODE":"US","LAUNCH_DATE":"2021-05-15","GP_ID":"187445908","PERIAPSIS":"545.755","NORAD_CAT_ID":"48591","MEAN_ELEMENT_THEORY":"SGP4","MEAN_MOTION":"15.06386865","ARG_OF_PERICENTER":"67.7848","FILE":"3168566","DECAY_DATE":null,"MEAN_MOTION_DOT":"0.00000995","MEAN_ANOMALY":"292.3371","EPHEMERIS_TYPE":"0","OBJECT_ID":"2021-041AQ","ECCENTRICITY":"0.00021640","EPOCH":"2021-10-17T01:05:38.127552","APOAPSIS":"548.752"},{"REV_AT_EPOCH":"2321","MEAN_MOTION_DDOT":"0.0000000000000","OBJECT_TYPE":"PAYLOAD","RA_OF_ASC_NODE":"144.8526","RCS_SIZE":"MEDIUM","ELEMENT_SET_NO":"999","BSTAR":"0.00020859000000","TLE_LINE1":"1 48592U 21041AR  21290.11099629  .00002826  00000-0  20859-3 0  9992","REF_FRAME":"TEME","TIME_SYSTEM":"UTC","SITE":"AFETR","PERIOD":"95.593","CENTER_NAME":"EARTH","TLE_LINE2":"2 48592  53.0551 144.8526 0001649  71.7135 288.4033 15.06386379 23217","SEMIMAJOR_AXIS":"6925.390","INCLINATION":"53.0551","CLASSIFICATION_TYPE":"U","COUNTRY_CODE":"US","OBJECT_NAME":"STARLINK-2249","LAUNCH_DATE":"2021-05-15","GP_ID":"187446470","NORAD_CAT_ID":"48592","PERIAPSIS":"546.113","MEAN_ELEMENT_THEORY":"SGP4","MEAN_MOTION":"15.06386379","DECAY_DATE":null,"ARG_OF_PERICENTER":"71.7135","FILE":"3168566","EPHEMERIS_TYPE":"0","MEAN_ANOMALY":"288.4033","MEAN_MOTION_DOT":"0.00002826","OBJECT_ID":"2021-041AR","APOAPSIS":"548.397","ECCENTRICITY":"0.00016490","EPOCH":"2021-10-17T02:39:50.079456"},{"MEAN_MOTION_DOT":"0.00001367","MEAN_ANOMALY":"290.5851","EPHEMERIS_TYPE":"0","ARG_OF_PERICENTER":"69.5346","FILE":"3168566","DECAY_DATE":null,"EPOCH":"2021-10-17T01:14:55.277952","ECCENTRICITY":"0.00019380","APOAPSIS":"548.606","OBJECT_ID":"2021-041AS","GP_ID":"187446358","NORAD_CAT_ID":"48593","PERIAPSIS":"545.922","MEAN_ELEMENT_THEORY":"SGP4","MEAN_MOTION":"15.06383571","OBJECT_NAME":"STARLINK-2250","COUNTRY_CODE":"US","LAUNCH_DATE":"2021-05-15","CLASSIFICATION_TYPE":"U","INCLINATION":"53.0547","SEMIMAJOR_AXIS":"6925.399","TIME_SYSTEM":"UTC","REF_FRAME":"TEME","TLE_LINE1":"1 48593U 21041AS  21290.05202868  .00001367  00000-0  11074-3 0  9995","BSTAR":"0.00011074000000","TLE_LINE2":"2 48593  53.0547 145.1113 0001938  69.5346 290.5851 15.06383571 23201","PERIOD":"95.593","CENTER_NAME":"EARTH","SITE":"AFETR","ELEMENT_SET_NO":"999","RCS_SIZE":"LARGE","MEAN_MOTION_DDOT":"0.0000000000000","REV_AT_EPOCH":"2320","OBJECT_TYPE":"PAYLOAD","RA_OF_ASC_NODE":"145.1113"},{"SITE":"AFETR","PERIOD":"95.400","CENTER_NAME":"EARTH","TLE_LINE2":"2 48594  53.0524 110.7577 0001842  70.8052  72.6284 15.09431386  3570","BSTAR":"0.00232230000000","TLE_LINE1":"1 48594U 21041AT  21290.91667824  .00037477  00000-0  23223-2 0  9997","REF_FRAME":"TEME","TIME_SYSTEM":"UTC","SEMIMAJOR_AXIS":"6916.073","OBJECT_TYPE":"PAYLOAD","RA_OF_ASC_NODE":"110.7577","REV_AT_EPOCH":"357","MEAN_MOTION_DDOT":"0.0000000000000","RCS_SIZE":"LARGE","ELEMENT_SET_NO":"999","MEAN_MOTION":"15.09431386","NORAD_CAT_ID":"48594","GP_ID":"187446584","PERIAPSIS":"536.664","MEAN_ELEMENT_THEORY":"SGP4","OBJECT_ID":"2021-041AT","APOAPSIS":"539.212","EPOCH":"2021-10-17T22:00:00.999936","ECCENTRICITY":"0.00018420","DECAY_DATE":null,"ARG_OF_PERICENTER":"70.8052","FILE":"3168566","MEAN_ANOMALY":"72.6284","EPHEMERIS_TYPE":"0","MEAN_MOTION_DOT":"0.00037477","INCLINATION":"53.0524","CLASSIFICATION_TYPE":"U","LAUNCH_DATE":"2021-05-15","COUNTRY_CODE":"US","OBJECT_NAME":"STARLINK-2251"}];
